NORAD_CAT_ID,OBJECT_NAME,OBJECT_TYPE,EPOCH,MEAN_MOTION,ECCENTRICITY,INCLINATION,RA_OF_ASC_NODE,ARG_OF_PERICENTER,MEAN_ANOMALY,BSTAR,MEAN_MOTION_DOT,MEAN_MOTION_DDOT,TLE_LINE0,TLE_LINE1,TLE_LINE2,SEMIMAJOR_AXIS,PERIOD,APOGEE,PERIGEE,DECAYED
53620.0,STARLINK-4615,PAYLOAD,2023-09-16 10:17:14,15.08864086,0.0001566,53.2185,337.8355,59.3504,300.7643,0.00080152,0.000125,0.0,0 STARLINK-4615,1 53620U 22104AJ  23259.42863590  .00012500  00000-0  80152-3 0  9990,2 53620  53.2185 337.8355 0001566  59.3504 300.7643 15.08864086 58406,6917.807,95.436,540.755,538.588,0.0
53620.0,STARLINK-4615,PAYLOAD,2023-09-16 11:52:37,15.08861981,0.0001598,53.2183,337.5388,56.9779,303.1366,0.00064458,9.991e-05,0.0,0 STARLINK-4615,1 53620U 22104AJ  23259.49487534  .00009991  00000-0  64458-3 0  9998,2 53620  53.2183 337.5388 0001598  56.9779 303.1366 15.08861981 59095,6917.813,95.436,540.784,538.573,0.0
53620.0,STARLINK-4615,PAYLOAD,2023-09-17 10:08:00,15.08853538,0.0001542,53.2185,333.3751,65.0875,295.0278,0.00023352,3.432e-05,0.0,0 STARLINK-4615,1 53620U 22104AJ  23260.42223098  .00003432  00000-0  23352-3 0  9998,2 53620  53.2185 333.3751 0001542  65.0875 295.0278 15.08853538 58552,6917.839,95.437,540.771,538.637,0.0
53620.0,STARLINK-4615,PAYLOAD,2023-09-18 11:34:10,15.08856232,0.0001486,53.2185,328.6169,71.7504,288.365,0.00018926,2.727e-05,0.0,0 STARLINK-4615,1 53620U 22104AJ  23261.48206186  .00002727  00000-0  18926-3 0  9991,2 53620  53.2185 328.6169 0001486  71.7504 288.3650 15.08856232 59398,6917.831,95.437,540.724,538.668,0.0
53620.0,STARLINK-4615,PAYLOAD,2023-09-18 21:06:29,15.08848742,0.0001378,53.2182,326.8312,79.5406,280.5741,9.8265e-05,1.277e-05,0.0,0 STARLINK-4615,1 53620U 22104AJ  23261.87950333  .00001277  00000-0  98265-4 0  9998,2 53620  53.2182 326.8312 0001378  79.5406 280.5741 15.08848742 58775,6917.854,95.437,540.672,538.765,0.0
53620.0,STARLINK-4615,PAYLOAD,2023-09-20 03:18:49,15.08832375,0.0001729,53.2177,321.183,108.3621,251.756,-0.00025596,-4.359e-05,0.0,0 STARLINK-4615,1 53620U 22104AJ  23263.13806899 -.00004359  00000-0 -25596-3 0  9998,2 53620  53.2177 321.1830 0001729 108.3621 251.7560 15.08832375 58967,6917.904,95.438,540.965,538.573,0.0
53620.0,STARLINK-4615,PAYLOAD,2023-09-20 11:15:46,15.08816193,0.0001309,53.2175,319.695,98.959,261.155,-0.00015964,-2.826e-05,0.0,0 STARLINK-4615,1 53620U 22104AJ  23263.46928388 -.00002826  00000-0 -15964-3 0  9997,2 53620  53.2175 319.6950 0001309  98.9590 261.1550 15.08816193 59014,6917.953,95.439,540.724,538.913,0.0
53620.0,STARLINK-4615,PAYLOAD,2023-09-21 09:31:10,15.08839573,0.0001488,53.2174,315.5326,102.3884,257.7275,0.0007133,0.00011082,0.0,0 STARLINK-4615,1 53620U 22104AJ  23264.39665016  .00011082  00000-0  71330-3 0  9997,2 53620  53.2174 315.5326 0001488 102.3884 257.7275 15.08839573 59156,6917.882,95.438,540.776,538.717,0.0
53620.0,STARLINK-4615,PAYLOAD,2023-09-21 12:41:57,15.08844766,0.00013,53.217,314.9376,96.1982,263.9158,0.0013092,0.00020612,0.0,0 STARLINK-4615,1 53620U 22104AJ  23264.52913365  .00020612  00000-0  13092-2 0  9994,2 53620  53.2170 314.9376 0001300  96.1982 263.9158 15.08844766 59858,6917.866,95.437,540.63,538.831,0.0
53620.0,STARLINK-4615,PAYLOAD,2023-09-21 20:38:52,15.0885587,0.0001384,53.2171,313.4502,88.4783,271.6368,0.00029805,4.461e-05,0.0,0 STARLINK-4615,1 53620U 22104AJ  23264.86033019  .00004461  00000-0  29805-3 0  9994,2 53620  53.2171 313.4502 0001384  88.4783 271.6368 15.08855870 59902,6917.832,95.437,540.654,538.739,0.0
53620.0,STARLINK-4615,PAYLOAD,2023-09-22 10:57:20,15.08861142,0.0001379,53.2171,310.7742,88.302,271.813,0.00058427,9.028e-05,0.0,0 STARLINK-4615,1 53620U 22104AJ  23265.45648376  .00009028  00000-0  58427-3 0  9994,2 53620  53.2171 310.7742 0001379  88.3020 271.8130 15.08861142 59318,6917.816,95.436,540.635,538.727,0.0
53620.0,STARLINK-4615,PAYLOAD,2023-09-22 20:29:38,15.08861076,0.0001427,53.217,308.9911,86.8788,273.2368,0.00030943,4.643e-05,0.0,0 STARLINK-4615,1 53620U 22104AJ  23265.85391890  .00004643  00000-0  30943-3 0  9995,2 53620  53.2170 308.9911 0001427  86.8788 273.2368 15.08861076 60050,6917.816,95.436,540.668,538.694,0.0
53620.0,STARLINK-4615,PAYLOAD,2023-09-23 09:12:43,15.08853601,0.0001479,53.2175,306.6129,86.0633,274.0528,3.5333e-05,2.75e-06,0.0,0 STARLINK-4615,1 53620U 22104AJ  23266.38383771  .00000275  00000-0  35333-4 0  9999,2 53620  53.2175 306.6129 0001479  86.0633 274.0528 15.08853601 59453,6917.839,95.437,540.727,538.681,0.0
53620.0,STARLINK-4615,PAYLOAD,2023-09-24 02:41:57,15.08847718,0.0001574,53.2172,303.3411,88.2873,271.83,-2.909e-05,-7.51e-06,0.0,0 STARLINK-4615,1 53620U 22104AJ  23267.11247586 -.00000751  00000-0 -29090-4 0  9998,2 53620  53.2172 303.3411 0001574  88.2873 271.8300 15.08847718 59561,6917.857,95.437,540.811,538.633,0.0
53620.0,STARLINK-4615,PAYLOAD,2023-09-24 09:03:30,15.08851284,0.0001436,53.2175,302.1499,99.1786,260.9369,-5.036e-05,-1.09e-05,0.0,0 STARLINK-4615,1 53620U 22104AJ  23267.37743461 -.00001090  00000-0 -50360-4 0  9990,2 53620  53.2175 302.1499 0001436  99.1786 260.9369 15.08851284 60286,6917.846,95.437,540.704,538.717,0.0
53620.0,STARLINK-4615,PAYLOAD,2023-09-25 02:32:45,15.08839021,0.0001497,53.2175,298.8778,106.4819,253.6338,4.7026e-05,4.61e-06,0.0,0 STARLINK-4615,1 53620U 22104AJ  23268.10607680  .00000461  00000-0  47026-4 0  9998,2 53620  53.2175 298.8778 0001497 106.4819 253.6338 15.08839021 59719,6917.883,95.438,540.784,538.713,0.0
53620.0,STARLINK-4615,PAYLOAD,2023-09-25 08:54:17,15.08846437,0.0001454,53.2174,297.6898,97.3758,262.7399,8.7015e-05,1.097e-05,0.0,0 STARLINK-4615,1 53620U 22104AJ  23268.37103132  .00001097  00000-0  87015-4 0  9998,2 53620  53.2174 297.6898 0001454  97.3758 262.7399 15.08846437 59752,6917.861,95.437,540.732,538.72,0.0
53620.0,STARLINK-4615,PAYLOAD,2023-09-26 02:23:31,15.08838148,0.0001431,53.2168,294.4194,91.9084,268.2072,0.00010087,1.318e-05,0.0,0 STARLINK-4615,1 53620U 22104AJ  23269.09967542  .00001318  00000-0  10087-3 0  9991,2 53620  53.2168 294.4194 0001431  91.9084 268.2072 15.08838148 59867,6917.886,95.438,540.741,538.761,0.0
53620.0,STARLINK-4615,PAYLOAD,2023-09-26 07:09:41,15.08837004,0.0001449,53.2181,293.5285,90.0066,270.1092,0.00014696,2.052e-05,0.0,0 STARLINK-4615,1 53620U 22104AJ  23269.29839544  .00002052  00000-0  14696-3 0  9999,2 53620  53.2181 293.5285 0001449  90.0066 270.1092 15.08837004 60576,6917.89,95.438,540.757,538.752,0.0
53620.0,STARLINK-4615,PAYLOAD,2023-09-27 08:35:52,15.0883606,0.000153,53.2182,288.7707,96.2704,263.8463,-9.5581e-06,-4.4e-06,0.0,0 STARLINK-4615,1 53620U 22104AJ  23270.35824172 -.00000440  00000-0 -95581-5 0  9994,2 53620  53.2182 288.7707 0001530  96.2704 263.8463 15.08836060 60055,6917.892,95.438,540.816,538.699,0.0
53620.0,STARLINK-4615,PAYLOAD,2023-09-27 10:11:15,15.08835936,0.0001523,53.2182,288.4729,95.6615,264.455,1.9235e-05,1.8e-07,0.0,0 STARLINK-4615,1 53620U 22104AJ  23270.42448101  .00000018  00000-0  19235-4 0  9996,2 53620  53.2182 288.4729 0001523  95.6615 264.4550 15.08835936 60743,6917.893,95.438,540.811,538.704,0.0
53620.0,STARLINK-4615,PAYLOAD,2023-09-27 22:54:20,15.08830961,0.000142,53.2174,286.0931,89.2656,270.8499,-2.4966e-05,-6.85e-06,0.0,0 STARLINK-4615,1 53620U 22104AJ  23270.95440763 -.00000685  00000-0 -24966-4 0  9999,2 53620  53.2174 286.0931 0001420  89.2656 270.8499 15.08830961 60143,6917.908,95.438,540.755,538.791,0.0
53620.0,STARLINK-4615,PAYLOAD,2023-09-28 10:02:02,15.08837591,0.000162,53.2173,284.0115,89.9417,270.176,-2.7109e-05,-7.19e-06,0.0,0 STARLINK-4615,1 53620U 22104AJ  23271.41808577 -.00000719  00000-0 -27109-4 0  9992,2 53620  53.2173 284.0115 0001620  89.9417 270.1760 15.08837591 60890,6917.888,95.438,540.873,538.632,0.0
53620.0,STARLINK-4615,PAYLOAD,2023-09-29 08:17:26,15.08842253,0.0001453,53.2173,279.8483,90.7024,269.4134,0.00012071,1.634e-05,0.0,0 STARLINK-4615,1 53620U 22104AJ  23272.34544113  .00001634  00000-0  12071-3 0  9994,2 53620  53.2173 279.8483 0001453  90.7024 269.4134 15.08842253 61032,6917.874,95.437,540.744,538.733,0.0
53620.0,STARLINK-4615,PAYLOAD,2023-09-30 04:57:27,15.08839838,0.0001466,53.2168,275.9824,90.8975,269.2186,0.0001223,1.659e-05,0.0,0 STARLINK-4615,1 53620U 22104AJ  23273.20656288  .00001659  00000-0  12230-3 0  9991,2 53620  53.2168 275.9824 0001466  90.8975 269.2186 15.08839838 61166,6917.881,95.438,540.76,538.732,0.0
53620.0,STARLINK-4615,PAYLOAD,2023-09-30 06:32:50,15.08840043,0.000146,53.2169,275.6851,91.6337,268.4822,0.00012284,1.668e-05,0.0,0 STARLINK-4615,1 53620U 22104AJ  23273.27280282  .00001668  00000-0  12284-3 0  9994,2 53620  53.2169 275.6851 0001460  91.6337 268.4822 15.08840043 60492,6917.88,95.438,540.755,538.735,0.0
53620.0,STARLINK-4615,PAYLOAD,2023-10-01 09:34:23,15.08848553,0.0001548,53.2173,270.6274,108.1573,251.9588,2.4362e-05,1e-06,0.0,0 STARLINK-4615,1 53620U 22104AJ  23274.39887784  .00000100  00000-0  24362-4 0  9999,2 53620  53.2173 270.6274 0001548 108.1573 251.9588 15.08848553 60663,6917.854,95.437,540.79,538.648,0.0
53620.0,STARLINK-4615,PAYLOAD,2023-10-01 17:31:19,15.08837873,0.0001447,53.2173,269.1384,108.5355,251.5794,-2.4975e-05,-6.85e-06,0.0,0 STARLINK-4615,1 53620U 22104AJ  23274.73008504 -.00000685  00000-0 -24975-4 0  9992,2 53620  53.2173 269.1384 0001447 108.5355 251.5794 15.08837873 60712,6917.887,95.438,540.753,538.751,0.0
53620.0,STARLINK-4615,PAYLOAD,2023-10-02 09:25:11,15.08834796,0.000156,53.2173,266.1675,102.6198,257.4969,8.1687e-06,-1.58e-06,0.0,0 STARLINK-4615,1 53620U 22104AJ  23275.39248899 -.00000158  00000-0  81687-5 0  9996,2 53620  53.2173 266.1675 0001560 102.6198 257.4969 15.08834796 61494,6917.896,95.438,540.84,538.682,0.0
53620.0,STARLINK-4615,PAYLOAD,2023-10-03 04:29:48,15.08842081,0.0001409,53.2161,262.5999,95.7472,264.3681,8.6917e-05,1.096e-05,0.0,0 STARLINK-4615,1 53620U 22104AJ  23276.18736421  .00001096  00000-0  86917-4 0  9998,2 53620  53.2161 262.5999 0001409  95.7472 264.3681 15.08842081 60931,6917.874,95.437,540.714,538.764,0.0
